{"type": "FeatureCollection", "features": [{"type": "Feature", "geometry": {"type": "Polygon", "coordinates": [[[10.268728488224802, 51.69486747387447], [10.568728488224803, 51.69486747387447], [10.568728488224803, 51.994867473874464], [10.268728488224802, 51.994867473874464], [10.268728488224802, 51.69486747387447]]]}, "properties": {}}, {"type": "Feature", "geometry": {"type": "Polygon", "coordinates": [[[11.527549237953227, 50.51013805147884], [11.827549237953228, 50.51013805147884], [11.827549237953228, 50.81013805147884], [11.527549237953227, 50.81013805147884], [11.527549237953227, 50.51013805147884]]]}, "properties": {}}, {"type": "Feature", "geometry": {"type": "Polygon", "coordinates": [[[10.990870174183883, 50.898982129577476], [11.290870174183883, 50.898982129577476], [11.290870174183883, 51.19898212957747], [10.990870174183883, 51.19898212957747], [10.990870174183883, 50.898982129577476]]]}, "properties": {}}, {"type": "Feature", "geometry": {"type": "Polygon", "coordinates": [[[11.303185945445525, 51.577446702271025], [11.603185945445526, 51.577446702271025], [11.603185945445526, 51.87744670227102], [11.303185945445525, 51.87744670227102], [11.303185945445525, 51.577446702271025]]]}, "properties": {}}, {"type": "Feature", "geometry": {"type": "Polygon", "coordinates": [[[10.18771917354847, 50.056694953044016], [10.48771917354847, 50.056694953044016], [10.48771917354847, 50.35669495304401], [10.18771917354847, 50.35669495304401], [10.18771917354847, 50.056694953044016]]]}, "properties": {}}]}