{"type": "FeatureCollection", "features": [{"type": "Feature", "geometry": {"type": "Polygon", "coordinates": [[[12.4120685437785, 52.3956549741187], [12.6620685437785, 52.3956549741187], [12.6620685437785, 52.6456549741187], [12.4120685437785, 52.6456549741187], [12.4120685437785, 52.3956549741187]]]}, "properties": {}}, {"type": "Feature", "geometry": {"type": "Polygon", "coordinates": [[[10.613102735453618, 50.66974399031784], [10.863102735453618, 50.66974399031784], [10.863102735453618, 50.91974399031784], [10.613102735453618, 50.91974399031784], [10.613102735453618, 50.66974399031784]]]}, "properties": {}}, {"type": "Feature", "geometry": {"type": "Polygon", "coordinates": [[[12.170997756258899, 51.971939978137044], [12.420997756258899, 51.971939978137044], [12.420997756258899, 52.221939978137044], [12.170997756258899, 52.221939978137044], [12.170997756258899, 51.971939978137044]]]}, "properties": {}}, {"type": "Feature", "geometry": {"type": "Polygon", "coordinates": [[[11.839460802880442, 51.116272915178286], [12.089460802880442, 51.116272915178286], [12.089460802880442, 51.366272915178286], [11.839460802880442, 51.366272915178286], [11.839460802880442, 51.116272915178286]]]}, "properties": {}}, {"type": "Feature", "geometry": {"type": "Polygon", "coordinates": [[[11.711888331356924, 51.71360346728168], [11.961888331356924, 51.71360346728168], [11.961888331356924, 51.96360346728168], [11.711888331356924, 51.96360346728168], [11.711888331356924, 51.71360346728168]]]}, "properties": {}}, {"type": "Feature", "geometry": {"type": "Polygon", "coordinates": [[[11.662408034224006, 50.81676574050961], [11.912408034224006, 50.81676574050961], [11.912408034224006, 51.06676574050961], [11.662408034224006, 51.06676574050961], [11.662408034224006, 50.81676574050961]]]}, "properties": {}}]}