{"type": "FeatureCollection", "features": [{"type": "Feature", "geometry": {"type": "Point", "coordinates": [11.394267984578837, 47.150064531336]}, "properties": {"name": "Location 1", "value": 45}}, {"type": "Feature", "geometry": {"type": "Point", "coordinates": [7.4489185380347624, 47.83722757115086]}, "properties": {"name": "Location 2", "value": 23}}, {"type": "Feature", "geometry": {"type": "Point", "coordinates": [11.766994874229113, 52.353077406229076]}, "properties": {"name": "Location 3", "value": 21}}, {"type": "Feature", "geometry": {"type": "Point", "coordinates": [10.904925124490397, 47.1906960768907]}, "properties": {"name": "Location 4", "value": 21}}, {"type": "Feature", "geometry": {"type": "Point", "coordinates": [7.186379748036034, 50.03213172862017]}, "properties": {"name": "Location 5", "value": 13}}, {"type": "Feature", "geometry": {"type": "Point", "coordinates": [10.61245062938613, 51.29611767753442]}, "properties": {"name": "Location 6", "value": 99}}, {"type": "Feature", "geometry": {"type": "Point", "coordinates": [10.449414806032166, 48.32264373224418]}, "properties": {"name": "Location 7", "value": 85}}, {"type": "Feature", "geometry": {"type": "Point", "coordinates": [7.781907082306628, 52.215801924757606]}, "properties": {"name": "Location 8", "value": 30}}, {"type": "Feature", "geometry": {"type": "Point", "coordinates": [11.981393949882268, 49.04150309910795]}, "properties": {"name": "Location 9", "value": 29}}, {"type": "Feature", "geometry": {"type": "Point", "coordinates": [7.153137621075888, 51.580964774039145]}, "properties": {"name": "Location 10", "value": 23}}, {"type": "Feature", "geometry": {"type": "Point", "coordinates": [5.927458433801479, 47.580298261000785]}, "properties": {"name": "Location 11", "value": 54}}, {"type": "Feature", "geometry": {"type": "Point", "coordinates": [11.037260313668911, 51.84276963964628]}, "properties": {"name": "Location 12", "value": 68}}, {"type": "Feature", "geometry": {"type": "Point", "coordinates": [10.362280914547007, 52.838694583876226]}, "properties": {"name": "Location 13", "value": 58}}, {"type": "Feature", "geometry": {"type": "Point", "coordinates": [5.788001980784582, 48.75906968844256]}, "properties": {"name": "Location 14", "value": 90}}, {"type": "Feature", "geometry": {"type": "Point", "coordinates": [11.185197523642461, 52.170241401864665]}, "properties": {"name": "Location 15", "value": 83}}, {"type": "Feature", "geometry": {"type": "Point", "coordinates": [6.922885902566599, 47.417330892942445]}, "properties": {"name": "Location 16", "value": 94}}, {"type": "Feature", "geometry": {"type": "Point", "coordinates": [7.278982756515468, 48.736327781612644]}, "properties": {"name": "Location 17", "value": 20}}, {"type": "Feature", "geometry": {"type": "Point", "coordinates": [13.55317721015147, 52.19890200053162]}, "properties": {"name": "Location 18", "value": 58}}, {"type": "Feature", "geometry": {"type": "Point", "coordinates": [7.779736031100921, 50.8141066655864]}, "properties": {"name": "Location 19", "value": 56}}, {"type": "Feature", "geometry": {"type": "Point", "coordinates": [6.626540971560848, 49.13162420136513]}, "properties": {"name": "Location 20", "value": 95}}]}